     2.00           N: GPS NAV DATA                         RINEX VERSION / TYPE
teqc  1999Jul19                         20080809 04:12:52UTCPGM / RUN BY / DATE
MSWinNT 4.0|PentPro|wcl386 10.6|MSWin95/98/NT|486/DX+       COMMENT
                                                            END OF HEADER
 9 08  8  8  0  0  0.0 8.974689990282D-06 1.818989403546D-12 0.000000000000D+00
    3.200000000000D+01-2.193750000000D+01 4.264106188567D-09-3.124362539041D-01
   -1.195818185806D-06 2.015456976369D-02 7.966533303261D-06 5.153661474228D+03
    4.320000000000D+05-2.067536115646D-07 1.688433706681D+00 2.048909664154D-07
    9.721357282809D-01 2.401250000000D+02 1.429503343592D+00-8.234271561891D-09
    4.193031799462D-10 0.000000000000D+00 1.491000000000D+03 0.000000000000D+00
    2.000000000000D+00 0.000000000000D+00-5.587935447693D-09 3.200000000000D+01
    4.319700000000D+05
12 08  8  8  0  0  0.0-3.551556728780D-04 1.023181539495D-12 0.000000000000D+00
    2.800000000000D+01-2.706250000000D+01 4.772698802062D-09 9.222220898632D-01
   -1.320615410805D-06 3.243554849178D-03 6.336718797684D-06 5.153548852921D+03
    4.320000000000D+05 3.539025783539D-08 2.774587053739D+00-1.043081283569D-07
    9.647196011294D-01 2.623437500000D+02-8.814500992490D-01-8.101051727036D-09
    2.250093725435D-10 0.000000000000D+00 1.491000000000D+03 0.000000000000D+00
    2.000000000000D+00 0.000000000000D+00-1.164153218269D-08 2.800000000000D+01
    4.319700000000D+05
14 08  8  8  0  0  0.0-2.348381094635D-04 4.547473508865D-12 0.000000000000D+00
    2.000000000000D+01-3.340625000000D+01 3.515860735426D-09 2.832235039101D+00
   -1.702457666397D-06 3.979047876783D-03 7.279217243195D-06 5.153725339890D+03
    4.320000000000D+05 1.862645149231D-08 7.083521139831D-01-2.607703208923D-08
    9.893120776648D-01 2.527812500000D+02-2.191389914792D+00-7.617102997200D-09
   -2.071514858337D-11 0.000000000000D+00 1.491000000000D+03 0.000000000000D+00
    2.000000000000D+00 0.000000000000D+00-8.847564458847D-09 2.000000000000D+01
    4.319700000000D+05
15 08  8  8  0  0  0.0-1.561539247632D-04-6.480149750132D-12 0.000000000000D+00
    9.300000000000D+01-4.493750000000D+01 4.397683181156D-09-2.554651945313D+00
   -2.352520823479D-06 7.355000125244D-04 6.293877959251D-06 5.153688343048D+03
    4.320000000000D+05 1.005828380585D-07 6.650561932314D-01-3.725290298462D-08
    9.576537609345D-01 2.565625000000D+02-1.234412589622D+00-8.102837515707D-09
   -1.289339420448D-10 0.000000000000D+00 1.491000000000D+03 0.000000000000D+00
    2.000000000000D+00 0.000000000000D+00-9.778887033463D-09 9.300000000000D+01
    4.319700000000D+05
18 08  8  8  0  0  0.0-1.475056633353D-04 4.206412995700D-12 0.000000000000D+00
    2.400000000000D+01 2.056250000000D+01 4.822343727116D-09-1.483375151181D+00
    1.059845089912D-06 9.722553193569D-03 3.952533006668D-06 5.153706405640D+03
    4.320000000000D+05 2.104789018631D-07-3.346335136862D-01-1.434236764908D-07
    9.468279915978D-01 2.983437500000D+02-2.484213200514D+00-8.255343868208D-09
   -1.671498196038D-10 0.000000000000D+00 1.491000000000D+03 0.000000000000D+00
    2.000000000000D+00 0.000000000000D+00-1.071020960808D-08 2.400000000000D+01
    4.319700000000D+05
21 08  8  8  0  0  0.0 5.525629967451D-05-1.364242052659D-12 0.000000000000D+00
    9.000000000000D+01 6.465625000000D+01 5.237361014251D-09-2.996997394685D-01
    3.300607204437D-06 1.421832817141D-02 7.314607501030D-06 5.153698427200D+03
    4.320000000000D+05 1.192092895508D-07-1.393101911441D+00 1.583248376846D-07
    9.354109707530D-01 2.238125000000D+02-2.689459088526D+00-8.556427838136D-09
   -1.357199389945D-10 0.000000000000D+00 1.491000000000D+03 0.000000000000D+00
    2.800000000000D+00 0.000000000000D+00-1.164153218269D-08 9.000000000000D+01
    4.319700000000D+05
22 08  8  8  0  0  0.0 2.113650552928D-04-1.136868377216D-13 0.000000000000D+00
    2.500000000000D+01 1.803125000000D+01 4.835915721015D-09-2.733139168640D+00
    9.965151548386D-07 5.030265310779D-03 4.187226295471D-06 5.153666843414D+03
    4.320000000000D+05 3.911554813385D-08-3.283019735178D-01-1.490116119385D-08
    9.444734980951D-01 2.910625000000D+02-1.831555197043D+00-8.252129448601D-09
   -1.878649681871D-10 0.000000000000D+00 1.491000000000D+03 0.000000000000D+00
    2.000000000000D+00 0.000000000000D+00-1.816079020500D-08 2.500000000000D+01
    4.319700000000D+05
24 08  8  7 23 59 44.0 1.154015772045D-04 2.842170943040D-12 0.000000000000D+00
    1.300000000000D+01 6.618750000000D+01 4.845558979838D-09-1.640976617857D+00
    3.399327397346D-06 7.612389628775D-03 7.806345820427D-06 5.153667716980D+03
    4.319840000000D+05-1.769512891769D-07-1.365906309698D+00-1.154839992523D-07
    9.520640299512D-01 2.236562500000D+02-7.247855745484D-01-8.236771666030D-09
   -7.428880871279D-11 0.000000000000D+00 1.491000000000D+03 0.000000000000D+00
    2.000000000000D+00 0.000000000000D+00-1.396983861923D-09 1.300000000000D+01
    4.319700000000D+05
26 08  8  8  0  0  0.0 3.061234019697D-04 6.252776074689D-12 0.000000000000D+00
    9.100000000000D+01-5.431250000000D+01 3.551576508846D-09 1.726021439584D+00
   -3.026798367500D-06 1.914605300408D-02 7.219612598419D-06 5.153627458572D+03
    4.320000000000D+05-3.296881914139D-07 7.245294848870D-01-2.067536115646D-07
    9.935303507442D-01 2.625937500000D+02 9.511479009108D-01-7.794967548830D-09
   -1.482204596914D-10 0.000000000000D+00 1.491000000000D+03 0.000000000000D+00
    2.800000000000D+00 0.000000000000D+00-6.053596735001D-09 9.100000000000D+01
    4.318200000000D+05
30 08  8  8  0  0  0.0 8.997879922390D-05 1.932676241267D-12 0.000000000000D+00
    1.800000000000D+01-2.575000000000D+01 5.024495004671D-09-1.939373460541D+00
   -1.160427927971D-06 1.094462233596D-02 5.681067705154D-06 5.153698682785D+03
    4.320000000000D+05 1.620501279831D-07 2.731615992965D+00 9.126961231232D-08
    9.495586437632D-01 2.600000000000D+02 1.386889600559D+00-8.139267604595D-09
    2.646538810393D-10 0.000000000000D+00 1.491000000000D+03 0.000000000000D+00
    2.000000000000D+00 0.000000000000D+00-8.381903171539D-09 1.800000000000D+01
    4.317600000000D+05
 9 08  8  8  2  0  0.0 8.987728506327D-06 1.818989403546D-12 0.000000000000D+00
    3.300000000000D+01-2.946875000000D+01 4.169102231271D-09 7.377122068917D-01
   -1.640990376472D-06 2.015614730772D-02 8.353963494301D-06 5.153664793015D+03
    4.392000000000D+05-2.477318048477D-07 1.688375466449D+00-7.823109626770D-08
    9.721378436604D-01 2.294375000000D+02 1.429539945802D+00-8.222842514396D-09
    2.100087477073D-10 0.000000000000D+00 1.491000000000D+03 0.000000000000D+00
    2.000000000000D+00 0.000000000000D+00-5.587935447693D-09 3.300000000000D+01
    4.320000000000D+05
12 08  8  8  2  0  0.0-3.551482222974D-04 1.023181539495D-12 0.000000000000D+00
    2.900000000000D+01-2.812500000000D+01 4.654122434309D-09 1.972564150312D+00
   -1.603737473488D-06 3.243396990001D-03 6.519258022308D-06 5.153548311234D+03
    4.392000000000D+05 5.215406417847D-08 2.774529651760D+00 3.725290298462D-08
    9.647215087746D-01 2.597500000000D+02-8.815334460807D-01-7.978189466472D-09
    1.710785546799D-10 0.000000000000D+00 1.491000000000D+03 0.000000000000D+00
    2.000000000000D+00 0.000000000000D+00-1.164153218269D-08 2.900000000000D+01
    4.320000000000D+05
14 08  8  8  2  0  0.0-2.348055131733D-04 4.547473508865D-12 0.000000000000D+00
    2.100000000000D+01-4.396875000000D+01 3.614436270064D-09-2.400973517293D+00
   -2.149492502213D-06 3.981312504038D-03 6.759539246559D-06 5.153720922470D+03
    4.392000000000D+05-5.401670932770D-08 7.082977753540D-01-8.940696716309D-08
    9.893117953216D-01 2.662187500000D+02-2.191223327921D+00-7.588530378464D-09
   -9.643258823294D-11 0.000000000000D+00 1.491000000000D+03 0.000000000000D+00
    2.000000000000D+00 0.000000000000D+00-8.847564458847D-09 2.100000000000D+01
    4.320000000000D+05
15 08  8  8  2  0  0.0-1.562004908919D-04-6.480149750132D-12 0.000000000000D+00
    9.400000000000D+01-4.928125000000D+01 4.435184743247D-09-1.504799010062D+00
   -2.529472112656D-06 7.352654356509D-04 6.411224603653D-06 5.153688144684D+03
    4.392000000000D+05 5.029141902924D-08 6.649976516386D-01 4.470348358154D-08
    9.576524209015D-01 2.546875000000D+02-1.234094720930D+00-8.175697693483D-09
   -1.500062483624D-10 0.000000000000D+00 1.491000000000D+03 0.000000000000D+00
    2.000000000000D+00 0.000000000000D+00-9.778887033463D-09 9.400000000000D+01
    4.320000000000D+05
18 08  8  8  2  0  0.0-1.474753953516D-04 4.206412995700D-12 0.000000000000D+00
    6.400000000000D+01 2.703125000000D+01 5.098783813383D-09-4.332872917663D-01
    1.305714249611D-06 9.722384507768D-03 3.874301910400D-06 5.153705039978D+03
    4.392000000000D+05 2.048909664154D-08-3.346934904016D-01 1.788139343262D-07
    9.468248214543D-01 2.970000000000D+02-2.484136666492D+00-8.622502018962D-09
   -2.703684047864D-10 0.000000000000D+00 1.491000000000D+03 0.000000000000D+00
    2.000000000000D+00 0.000000000000D+00-1.071020960808D-08 6.400000000000D+01
    4.320000000000D+05
21 08  8  8  2  0  0.0 5.524605512619D-05-1.364242052659D-12 0.000000000000D+00
    9.500000000000D+01 7.265625000000D+01 5.267719421658D-09 7.504110102249D-01
    4.028901457787D-06 1.421903481241D-02 7.677823305130D-06 5.153700134277D+03
    4.392000000000D+05-1.862645149231D-08-1.393163179913D+00 1.788139343262D-07
    9.354099730429D-01 2.152500000000D+02-2.689398516403D+00-8.516783329640D-09
   -1.964367538078D-10 0.000000000000D+00 1.491000000000D+03 0.000000000000D+00
    2.800000000000D+00 0.000000000000D+00-1.164153218269D-08 9.500000000000D+01
    4.320000000000D+05
